[{"OBJECT_NAME":"STARLINK-4554","OBJECT_ID":"2022-104AQ","EPOCH":"2026-03-09T17:07:06.551328","MEAN_MOTION":15.08851935,"ECCENTRICITY":0.00013513,"INCLINATION":53.2169,"RA_OF_ASC_NODE":233.6567,"ARG_OF_PERICENTER":70.9294,"MEAN_ANOMALY":289.1844,"EPHEMERIS_TYPE":0,"CLASSIFICATION_TYPE":"U","NORAD_CAT_ID":53626,"ELEMENT_SET_NO":999,"REV_AT_EPOCH":19576,"BSTAR":0.00010801052,"MEAN_MOTION_DOT":1.432e-5,"MEAN_MOTION_DDOT":0},{"OBJECT_NAME":"CZ-6A DEB","OBJECT_ID":"2022-151KB","EPOCH":"2026-03-09T19:20:41.637408","MEAN_MOTION":14.94061736,"ECCENTRICITY":0.0071589,"INCLINATION":98.7004,"RA_OF_ASC_NODE":166.2159,"ARG_OF_PERICENTER":166.3306,"MEAN_ANOMALY":193.9872,"EPHEMERIS_TYPE":0,"CLASSIFICATION_TYPE":"U","NORAD_CAT_ID":54523,"ELEMENT_SET_NO":999,"REV_AT_EPOCH":17710,"BSTAR":0.0044467837,"MEAN_MOTION_DOT":0.00050189,"MEAN_MOTION_DDOT":0}]
